{"type": "FeatureCollection", "features": [ {"type": "Feature", "properties": {"norad_id": 32366, "name": "FENGYUN 1C DEB", "group": "fengyun-1c-debris", "lat": 5.688530535980493, "lon": 103.61671635811987, "alt_km": 829.8517218421484, "timestamp": "2025-12-06T09:34:17.200071+00:00", "meta": {"OBJECT_NAME": "FENGYUN 1C DEB", "OBJECT_ID": "1999-025CZK", "EPOCH": "2025-12-04T01:29:27.357216", "MEAN_MOTION": 14.13743383, "ECCENTRICITY": 0.01349838, "INCLINATION": 96.7762, "RA_OF_ASC_NODE": 102.5214, "ARG_OF_PERICENTER": 293.2229, "MEAN_ANOMALY": 65.4783, "EPHEMERIS_TYPE": 0, "CLASSIFICATION_TYPE": "U", "NORAD_CAT_ID": 32366, "ELEMENT_SET_NO": 999, "REV_AT_EPOCH": 93081, "BSTAR": 0.0027071778, "MEAN_MOTION_DOT": 5.557e-05, "MEAN_MOTION_DDOT": 0}, "tle": {"line1": "1 32366U 99025CZK 25338.06212219  .00005557  00000+0  27072-2 0  9990", "line2": "2 32366  96.7762 102.5214 0134983 293.2229  65.4783 14.13743383930812"}}, "geometry": {"type": "Point", "coordinates": [103.61671635811987, 5.688530535980493]}}, {"type": "Feature", "properties": {"norad_id": 32372, "name": "FENGYUN 1C DEB", "group": "fengyun-1c-debris", "lat": 72.83315588372751, "lon": 67.83755021053604, "alt_km": 885.4507685041926, "timestamp": "2025-12-06T09:34:17.200081+00:00", "meta": {"OBJECT_NAME": "FENGYUN 1C DEB", "OBJECT_ID": "1999-025CZR", "EPOCH": "2025-11-30T21:48:44.835264", "MEAN_MOTION": 13.3530275, "ECCENTRICITY": 0.04574659, "INCLINATION": 97.31, "RA_OF_ASC_NODE": 219.3372, "ARG_OF_PERICENTER": 70.903, "MEAN_ANOMALY": 294.1051, "EPHEMERIS_TYPE": 0, "CLASSIFICATION_TYPE": "U", "NORAD_CAT_ID": 32372, "ELEMENT_SET_NO": 999, "REV_AT_EPOCH": 59982, "BSTAR": 0.0023360398, "MEAN_MOTION_DOT": 2.126e-05, "MEAN_MOTION_DDOT": 0}, "tle": {"line1": "1 32372U 99025CZR 25334.90885226  .00002126  00000+0  23360-2 0  9995", "line2": "2 32372  97.3100 219.3372 0457465  70.9030 294.1051 13.35302750599820"}}, "geometry": {"type": "Point", "coordinates": [67.83755021053604, 72.83315588372751]}}, {"type": "Feature", "properties": {"norad_id": 32409, "name": "FENGYUN 1C DEB", "group": "fengyun-1c-debris", "lat": 11.201701604647953, "lon": -34.99848596750034, "alt_km": 615.7877619788787, "timestamp": "2025-12-06T09:34:17.200092+00:00", "meta": {"OBJECT_NAME": "FENGYUN 1C DEB", "OBJECT_ID": "1999-025CZV", "EPOCH": "2025-12-04T05:32:26.392128", "MEAN_MOTION": 14.75878452, "ECCENTRICITY": 0.0039355, "INCLINATION": 99.5656, "RA_OF_ASC_NODE": 140.5258, "ARG_OF_PERICENTER": 178.9969, "MEAN_ANOMALY": 357.0191, "EPHEMERIS_TYPE": 0, "CLASSIFICATION_TYPE": "U", "NORAD_CAT_ID": 32409, "ELEMENT_SET_NO": 999, "REV_AT_EPOCH": 58713, "BSTAR": 0.0044455, "MEAN_MOTION_DOT": 0.00030976, "MEAN_MOTION_DDOT": 0}, "tle": {"line1": "1 32409U 99025CZV 25338.23086102  .00030976  00000+0  44455-2 0  9994", "line2": "2 32409  99.5656 140.5258 0039355 178.9969 357.0191 14.75878452587130"}}, "geometry": {"type": "Point", "coordinates": [-34.99848596750034, 11.201701604647953]}}, {"type": "Feature", "properties": {"norad_id": 32411, "name": "FENGYUN 1C DEB", "group": "fengyun-1c-debris", "lat": -20.70185963760005, "lon": 75.54473980359826, "alt_km": 952.8862597419247, "timestamp": "2025-12-06T09:34:17.200103+00:00", "meta": {"OBJECT_NAME": "FENGYUN 1C DEB", "OBJECT_ID": "1999-025CZX", "EPOCH": "2025-12-04T00:25:02.853696", "MEAN_MOTION": 14.09783201, "ECCENTRICITY": 0.0124615, "INCLINATION": 98.4286, "RA_OF_ASC_NODE": 256.5257, "ARG_OF_PERICENTER": 41.2219, "MEAN_ANOMALY": 319.8282, "EPHEMERIS_TYPE": 0, "CLASSIFICATION_TYPE": "U", "NORAD_CAT_ID": 32411, "ELEMENT_SET_NO": 999, "REV_AT_EPOCH": 65691, "BSTAR": 0.00077808589, "MEAN_MOTION_DOT": 1.43e-05, "MEAN_MOTION_DDOT": 0}, "tle": {"line1": "1 32411U 99025CZX 25338.01739414  .00001430  00000+0  77809-3 0  9997", "line2": "2 32411  98.4286 256.5257 0124615  41.2219 319.8282 14.09783201656915"}}, "geometry": {"type": "Point", "coordinates": [75.54473980359826, -20.70185963760005]}}, {"type": "Feature", "properties": {"norad_id": 32414, "name": "FENGYUN 1C DEB", "group": "fengyun-1c-debris", "lat": 73.31150539146176, "lon": -97.58283608899025, "alt_km": 821.964182196577, "timestamp": "2025-12-06T09:34:17.200113+00:00", "meta": {"OBJECT_NAME": "FENGYUN 1C DEB", "OBJECT_ID": "1999-025DAA", "EPOCH": "2025-12-02T22:07:30.753408", "MEAN_MOTION": 14.18324916, "ECCENTRICITY": 0.00452816, "INCLINATION": 98.8592, "RA_OF_ASC_NODE": 47.5985, "ARG_OF_PERICENTER": 27.2148, "MEAN_ANOMALY": 333.1386, "EPHEMERIS_TYPE": 0, "CLASSIFICATION_TYPE": "U", "NORAD_CAT_ID": 32414, "ELEMENT_SET_NO": 999, "REV_AT_EPOCH": 93593, "BSTAR": 0.0017856615, "MEAN_MOTION_DOT": 3.674e-05, "MEAN_MOTION_DDOT": 0}, "tle": {"line1": "1 32414U 99025DAA 25336.92188372  .00003674  00000+0  17857-2 0  9997", "line2": "2 32414  98.8592  47.5985 0045281  27.2148 333.1386 14.18324916935934"}}, "geometry": {"type": "Point", "coordinates": [-97.58283608899025, 73.31150539146176]}}, {"type": "Feature", "properties": {"norad_id": 32419, "name": "FENGYUN 1C DEB", "group": "fengyun-1c-debris", "lat": 78.51988191621737, "lon": 139.83738197438942, "alt_km": 719.6850165571614, "timestamp": "2025-12-06T09:34:17.200123+00:00", "meta": {"OBJECT_NAME": "FENGYUN 1C DEB", "OBJECT_ID": "1999-025DAF", "EPOCH": "2025-12-01T13:18:33.510528", "MEAN_MOTION": 14.09844164, "ECCENTRICITY": 0.02843724, "INCLINATION": 97.9442, "RA_OF_ASC_NODE": 272.1151, "ARG_OF_PERICENTER": 61.2588, "MEAN_ANOMALY": 301.6841, "EPHEMERIS_TYPE": 0, "CLASSIFICATION_TYPE": "U", "NORAD_CAT_ID": 32419, "ELEMENT_SET_NO": 999, "REV_AT_EPOCH": 63413, "BSTAR": 0.00077117327, "MEAN_MOTION_DOT": 1.939e-05, "MEAN_MOTION_DDOT": 0}, "tle": {"line1": "1 32419U 99025DAF 25335.55455452  .00001939  00000+0  77117-3 0  9994", "line2": "2 32419  97.9442 272.1151 0284372  61.2588 301.6841 14.09844164634132"}}, "geometry": {"type": "Point", "coordinates": [139.83738197438942, 78.51988191621737]}}, {"type": "Feature", "properties": {"norad_id": 32422, "name": "FENGYUN 1C DEB", "group": "fengyun-1c-debris", "lat": 12.989659450476058, "lon": -65.36891593990005, "alt_km": 1075.4772270409685, "timestamp": "2025-12-06T09:34:17.200139+00:00", "meta": {"OBJECT_NAME": "FENGYUN 1C DEB", "OBJECT_ID": "1999-025DAJ", "EPOCH": "2025-12-04T15:31:47.977248", "MEAN_MOTION": 13.97990532, "ECCENTRICITY": 0.0298457, "INCLINATION": 97.839, "RA_OF_ASC_NODE": 111.3103, "ARG_OF_PERICENTER": 315.8361, "MEAN_ANOMALY": 41.9322, "EPHEMERIS_TYPE": 0, "CLASSIFICATION_TYPE": "U", "NORAD_CAT_ID": 32422, "ELEMENT_SET_NO": 999, "REV_AT_EPOCH": 63020, "BSTAR": 0.00049372, "MEAN_MOTION_DOT": 9.86e-06, "MEAN_MOTION_DDOT": 0}, "tle": {"line1": "1 32422U 99025DAJ 25338.64708307  .00000986  00000+0  49372-3 0  9994", "line2": "2 32422  97.8390 111.3103 0298457 315.8361  41.9322 13.97990532630203"}}, "geometry": {"type": "Point", "coordinates": [-65.36891593990005, 12.989659450476058]}}, {"type": "Feature", "properties": {"norad_id": 32425, "name": "FENGYUN 1C DEB", "group": "fengyun-1c-debris", "lat": 44.67719110438024, "lon": 123.61294487504699, "alt_km": 818.3862680262146, "timestamp": "2025-12-06T09:34:17.200150+00:00", "meta": {"OBJECT_NAME": "FENGYUN 1C DEB", "OBJECT_ID": "1999-025DAM", "EPOCH": "2025-11-30T16:03:56.695680", "MEAN_MOTION": 14.16697533, "ECCENTRICITY": 0.02326647, "INCLINATION": 96.7011, "RA_OF_ASC_NODE": 125.9631, "ARG_OF_PERICENTER": 335.9912, "MEAN_ANOMALY": 23.0555, "EPHEMERIS_TYPE": 0, "CLASSIFICATION_TYPE": "U", "NORAD_CAT_ID": 32425, "ELEMENT_SET_NO": 999, "REV_AT_EPOCH": 69364, "BSTAR": 0.00044952502, "MEAN_MOTION_DOT": 1.14e-05, "MEAN_MOTION_DDOT": 0}, "tle": {"line1": "1 32425U 99025DAM 25334.66940620  .00001140  00000+0  44953-3 0  9994", "line2": "2 32425  96.7011 125.9631 0232664 335.9912  23.0555 14.16697533693647"}}, "geometry": {"type": "Point", "coordinates": [123.61294487504699, 44.67719110438024]}}, {"type": "Feature", "properties": {"norad_id": 32430, "name": "FENGYUN 1C DEB", "group": "fengyun-1c-debris", "lat": 33.059469835382714, "lon": -168.54899392694549, "alt_km": 1202.2200172929552, "timestamp": "2025-12-06T09:34:17.200160+00:00", "meta": {"OBJECT_NAME": "FENGYUN 1C DEB", "OBJECT_ID": "1999-025DAS", "EPOCH": "2025-11-28T08:01:51.379680", "MEAN_MOTION": 13.700237, "ECCENTRICITY": 0.03669598, "INCLINATION": 98.6995, "RA_OF_ASC_NODE": 358.4209, "ARG_OF_PERICENTER": 308.4, "MEAN_ANOMALY": 48.4718, "EPHEMERIS_TYPE": 0, "CLASSIFICATION_TYPE": "U", "NORAD_CAT_ID": 32430, "ELEMENT_SET_NO": 999, "REV_AT_EPOCH": 91006, "BSTAR": 0.0013292219, "MEAN_MOTION_DOT": 1.837e-05, "MEAN_MOTION_DDOT": 0}, "tle": {"line1": "1 32430U 99025DAS 25332.33462245  .00001837  00000+0  13292-2 0  9998", "line2": "2 32430  98.6995 358.4209 0366959 308.4000  48.4718 13.70023700910065"}}, "geometry": {"type": "Point", "coordinates": [-168.54899392694549, 33.059469835382714]}}, {"type": "Feature", "properties": {"norad_id": 32432, "name": "FENGYUN 1C DEB", "group": "fengyun-1c-debris", "lat": -81.81259593872831, "lon": 109.86862676499302, "alt_km": 654.9648842627776, "timestamp": "2025-12-06T09:34:17.200170+00:00", "meta": {"OBJECT_NAME": "FENGYUN 1C DEB", "OBJECT_ID": "1999-025DAU", "EPOCH": "2025-12-05T20:44:49.434720", "MEAN_MOTION": 14.52320689, "ECCENTRICITY": 0.0172946, "INCLINATION": 98.1701, "RA_OF_ASC_NODE": 16.2233, "ARG_OF_PERICENTER": 327.0054, "MEAN_ANOMALY": 32.0443, "EPHEMERIS_TYPE": 0, "CLASSIFICATION_TYPE": "U", "NORAD_CAT_ID": 32432, "ELEMENT_SET_NO": 999, "REV_AT_EPOCH": 70595, "BSTAR": 0.0025653324, "MEAN_MOTION_DOT": 0.00012663, "MEAN_MOTION_DDOT": 0}, "tle": {"line1": "1 32432U 99025DAU 25339.86446105  .00012663  00000+0  25653-2 0  9995", "line2": "2 32432  98.1701  16.2233 0172946 327.0054  32.0443 14.52320689705951"}}, "geometry": {"type": "Point", "coordinates": [109.86862676499302, -81.81259593872831]}}]}